[{"OBJECT_NAME":"PRAETORIAN SDA_617","OBJECT_ID":"2025-203R","EPOCH":"2026-03-14T12:48:14.159808","MEAN_MOTION":13.83192181,"ECCENTRICITY":0.00087619,"INCLINATION":81.2998,"RA_OF_ASC_NODE":98.4133,"ARG_OF_PERICENTER":89.5765,"MEAN_ANOMALY":270.6395,"EPHEMERIS_TYPE":0,"CLASSIFICATION_TYPE":"U","NORAD_CAT_ID":65580,"ELEMENT_SET_NO":999,"REV_AT_EPOCH":2560,"BSTAR":7.4943427e-5,"MEAN_MOTION_DOT":9.4e-7,"MEAN_MOTION_DDOT":0},{"OBJECT_NAME":"PRAETORIAN SDA_618","OBJECT_ID":"2025-203S","EPOCH":"2026-03-14T12:59:50.316576","MEAN_MOTION":13.84761458,"ECCENTRICITY":0.00110315,"INCLINATION":81.2986,"RA_OF_ASC_NODE":98.2332,"ARG_OF_PERICENTER":90.4025,"MEAN_ANOMALY":269.8396,"EPHEMERIS_TYPE":0,"CLASSIFICATION_TYPE":"U","NORAD_CAT_ID":65581,"ELEMENT_SET_NO":999,"REV_AT_EPOCH":2561,"BSTAR":0.00027165047,"MEAN_MOTION_DOT":3.18e-6,"MEAN_MOTION_DDOT":0},{"OBJECT_NAME":"PRAETORIAN SDA_619","OBJECT_ID":"2025-203T","EPOCH":"2026-03-14T14:13:24.785472","MEAN_MOTION":13.83930218,"ECCENTRICITY":0.00094154,"INCLINATION":81.3004,"RA_OF_ASC_NODE":98.3374,"ARG_OF_PERICENTER":88.9899,"MEAN_ANOMALY":271.2336,"EPHEMERIS_TYPE":0,"CLASSIFICATION_TYPE":"U","NORAD_CAT_ID":65582,"ELEMENT_SET_NO":999,"REV_AT_EPOCH":2624,"BSTAR":0.00026789325,"MEAN_MOTION_DOT":3.09e-6,"MEAN_MOTION_DDOT":0},{"OBJECT_NAME":"PRAETORIAN SDA_620","OBJECT_ID":"2025-203U","EPOCH":"2026-03-14T12:43:33.447072","MEAN_MOTION":13.83705339,"ECCENTRICITY":0.00088681,"INCLINATION":81.2992,"RA_OF_ASC_NODE":98.3916,"ARG_OF_PERICENTER":87.7767,"MEAN_ANOMALY":272.4405,"EPHEMERIS_TYPE":0,"CLASSIFICATION_TYPE":"U","NORAD_CAT_ID":65583,"ELEMENT_SET_NO":999,"REV_AT_EPOCH":2560,"BSTAR":0.00025505822,"MEAN_MOTION_DOT":2.94e-6,"MEAN_MOTION_DDOT":0},{"OBJECT_NAME":"PRAETORIAN SDA_621","OBJECT_ID":"2025-203V","EPOCH":"2026-03-14T14:04:19.380288","MEAN_MOTION":13.83788174,"ECCENTRICITY":0.00086658,"INCLINATION":81.2981,"RA_OF_ASC_NODE":98.2879,"ARG_OF_PERICENTER":84.3686,"MEAN_ANOMALY":275.8459,"EPHEMERIS_TYPE":0,"CLASSIFICATION_TYPE":"U","NORAD_CAT_ID":65584,"ELEMENT_SET_NO":999,"REV_AT_EPOCH":2561,"BSTAR":7.4675512e-5,"MEAN_MOTION_DOT":9.5e-7,"MEAN_MOTION_DDOT":0},{"OBJECT_NAME":"PRAETORIAN SDA_601","OBJECT_ID":"2025-203W","EPOCH":"2026-03-14T14:22:43.938624","MEAN_MOTION":13.83485541,"ECCENTRICITY":0.00065851,"INCLINATION":81.3002,"RA_OF_ASC_NODE":98.4929,"ARG_OF_PERICENTER":97.6933,"MEAN_ANOMALY":262.4971,"EPHEMERIS_TYPE":0,"CLASSIFICATION_TYPE":"U","NORAD_CAT_ID":65585,"ELEMENT_SET_NO":999,"REV_AT_EPOCH":2560,"BSTAR":0.00024566008,"MEAN_MOTION_DOT":2.82e-6,"MEAN_MOTION_DDOT":0}]
