PRAETORIAN SDA_617      
1 65580U 25203R   26073.53349722  .00000094  00000+0  74943-4 0  9992
2 65580  81.2998  98.4133 0008761  89.5765 270.6395 13.83192181 25605
PRAETORIAN SDA_618      
1 65581U 25203S   26073.54155459  .00000318  00000+0  27165-3 0  9998
2 65581  81.2986  98.2332 0011031  90.4025 269.8396 13.84761458 25618
PRAETORIAN SDA_619      
1 65582U 25203T   26073.59264798  .00000309  00000+0  26789-3 0  9992
2 65582  81.3004  98.3374 0009415  88.9899 271.2336 13.83930218 26244
PRAETORIAN SDA_620      
1 65583U 25203U   26073.53024823  .00000294  00000+0  25506-3 0  9999
2 65583  81.2992  98.3916 0008868  87.7767 272.4405 13.83705339 25607
PRAETORIAN SDA_621      
1 65584U 25203V   26073.58633542  .00000095  00000+0  74676-4 0  9991
2 65584  81.2981  98.2879 0008665  84.3686 275.8459 13.83788174 25616
PRAETORIAN SDA_601      
1 65585U 25203W   26073.59911966  .00000282  00000+0  24566-3 0  9992
2 65585  81.3002  98.4929 0006585  97.6933 262.4971 13.83485541 25603
